OBJECT B                
1 51825U 22019B   24213.83947673  .00016258  00000+0  68674-3 0  9999
2 51825  97.4270 284.6692 0015436  85.3940 274.9060 15.23223194134027
